{"type": "FeatureCollection", "features": [ {"type": "Feature", "properties": {"norad_id": 44804, "name": "CARTOSAT-3", "group": "resource", "lat": -14.688051128587897, "lon": -121.47724962603198, "alt_km": 521.4206995932464, "timestamp": "2025-12-27T02:10:15.845817+00:00", "meta": {"OBJECT_NAME": "CARTOSAT-3", "OBJECT_ID": "2019-081A", "EPOCH": "2025-12-26T20:34:31.003392", "MEAN_MOTION": 15.1926886, "ECCENTRICITY": 0.001355, "INCLINATION": 97.4558, "RA_OF_ASC_NODE": 60.2598, "ARG_OF_PERICENTER": 38.3831, "MEAN_ANOMALY": 321.8365, "EPHEMERIS_TYPE": 0, "CLASSIFICATION_TYPE": "U", "NORAD_CAT_ID": 44804, "ELEMENT_SET_NO": 999, "REV_AT_EPOCH": 33730, "BSTAR": 0.00017228, "MEAN_MOTION_DOT": 3.572e-05, "MEAN_MOTION_DDOT": 0}, "tle": {"line1": "1 44804U 19081A   25360.85730328  .00003572  00000+0  17228-3 0  9990", "line2": "2 44804  97.4558  60.2598 0013550  38.3831 321.8365 15.19268860337300"}}, "geometry": {"type": "Point", "coordinates": [-121.47724962603198, -14.688051128587897]}}, {"type": "Feature", "properties": {"norad_id": 44819, "name": "GAOFEN-12 01", "group": "resource", "lat": 68.3441891810492, "lon": -152.77522836541945, "alt_km": 619.7954695115641, "timestamp": "2025-12-27T02:10:15.845827+00:00", "meta": {"OBJECT_NAME": "GAOFEN-12 01", "OBJECT_ID": "2019-082A", "EPOCH": "2025-12-26T20:48:33.587424", "MEAN_MOTION": 14.80673524, "ECCENTRICITY": 0.0002342, "INCLINATION": 97.8125, "RA_OF_ASC_NODE": 6.7772, "ARG_OF_PERICENTER": 173.2474, "MEAN_ANOMALY": 186.8771, "EPHEMERIS_TYPE": 0, "CLASSIFICATION_TYPE": "U", "NORAD_CAT_ID": 44819, "ELEMENT_SET_NO": 999, "REV_AT_EPOCH": 32859, "BSTAR": 7.7611e-05, "MEAN_MOTION_DOT": 5.46e-06, "MEAN_MOTION_DDOT": 0}, "tle": {"line1": "1 44819U 19082A   25360.86705541  .00000546  00000+0  77611-4 0  9998", "line2": "2 44819  97.8125   6.7772 0002342 173.2474 186.8771 14.80673524328593"}}, "geometry": {"type": "Point", "coordinates": [-152.77522836541945, 68.3441891810492]}}, {"type": "Feature", "properties": {"norad_id": 44873, "name": "CSG-1", "group": "resource", "lat": -60.94341462971475, "lon": -163.36584353803266, "alt_km": 630.5093930981147, "timestamp": "2025-12-27T02:10:15.845838+00:00", "meta": {"OBJECT_NAME": "CSG-1", "OBJECT_ID": "2019-092A", "EPOCH": "2025-12-26T19:58:09.048288", "MEAN_MOTION": 14.82163373, "ECCENTRICITY": 0.0001447, "INCLINATION": 97.8805, "RA_OF_ASC_NODE": 181.944, "ARG_OF_PERICENTER": 84.8551, "MEAN_ANOMALY": 275.2827, "EPHEMERIS_TYPE": 0, "CLASSIFICATION_TYPE": "U", "NORAD_CAT_ID": 44873, "ELEMENT_SET_NO": 999, "REV_AT_EPOCH": 32594, "BSTAR": 9.1746e-05, "MEAN_MOTION_DOT": 6.78e-06, "MEAN_MOTION_DDOT": 0}, "tle": {"line1": "1 44873U 19092A   25360.83204917  .00000678  00000+0  91746-4 0  9998", "line2": "2 44873  97.8805 181.9440 0001447  84.8551 275.2827 14.82163373325943"}}, "geometry": {"type": "Point", "coordinates": [-163.36584353803266, -60.94341462971475]}}, {"type": "Feature", "properties": {"norad_id": 46277, "name": "NEMO-HD", "group": "resource", "lat": -44.09946239120414, "lon": -127.04926077160505, "alt_km": 451.69777343774604, "timestamp": "2025-12-27T02:10:15.845848+00:00", "meta": {"OBJECT_NAME": "NEMO-HD", "OBJECT_ID": "2020-061F", "EPOCH": "2025-12-26T20:31:23.793600", "MEAN_MOTION": 15.40618965, "ECCENTRICITY": 9.84e-05, "INCLINATION": 97.2188, "RA_OF_ASC_NODE": 59.7738, "ARG_OF_PERICENTER": 55.2588, "MEAN_ANOMALY": 304.8751, "EPHEMERIS_TYPE": 0, "CLASSIFICATION_TYPE": "U", "NORAD_CAT_ID": 46277, "ELEMENT_SET_NO": 999, "REV_AT_EPOCH": 29541, "BSTAR": 0.00029134, "MEAN_MOTION_DOT": 0.00011785, "MEAN_MOTION_DDOT": 0}, "tle": {"line1": "1 46277U 20061F   25360.85513650  .00011785  00000+0  29134-3 0  9997", "line2": "2 46277  97.2188  59.7738 0000984  55.2588 304.8751 15.40618965295410"}}, "geometry": {"type": "Point", "coordinates": [-127.04926077160505, -44.09946239120414]}}, {"type": "Feature", "properties": {"norad_id": 46984, "name": "SENTINEL-6A", "group": "resource", "lat": 26.162843809706416, "lon": 145.1182581170704, "alt_km": 1338.7432058432905, "timestamp": "2025-12-27T02:10:15.845858+00:00", "meta": {"OBJECT_NAME": "SENTINEL-6A", "OBJECT_ID": "2020-086A", "EPOCH": "2025-12-26T18:31:32.280096", "MEAN_MOTION": 12.80930832, "ECCENTRICITY": 0.0007758, "INCLINATION": 66.0403, "RA_OF_ASC_NODE": 133.163, "ARG_OF_PERICENTER": 269.458, "MEAN_ANOMALY": 90.5546, "EPHEMERIS_TYPE": 0, "CLASSIFICATION_TYPE": "U", "NORAD_CAT_ID": 46984, "ELEMENT_SET_NO": 999, "REV_AT_EPOCH": 23824, "BSTAR": 9.4021e-05, "MEAN_MOTION_DOT": -3.9e-07, "MEAN_MOTION_DDOT": 0}, "tle": {"line1": "1 46984U 20086A   25360.77190139 -.00000039  00000+0  94021-4 0  9992", "line2": "2 46984  66.0403 133.1630 0007758 269.4580  90.5546 12.80930832238244"}}, "geometry": {"type": "Point", "coordinates": [145.1182581170704, 26.162843809706416]}}, {"type": "Feature", "properties": {"norad_id": 48079, "name": "GAOFEN-12 02", "group": "resource", "lat": 56.380325017555684, "lon": -172.78292774826264, "alt_km": 620.1876714108485, "timestamp": "2025-12-27T02:10:15.845868+00:00", "meta": {"OBJECT_NAME": "GAOFEN-12 02", "OBJECT_ID": "2021-026A", "EPOCH": "2025-12-26T20:45:12.867264", "MEAN_MOTION": 14.80691768, "ECCENTRICITY": 0.000352, "INCLINATION": 97.9858, "RA_OF_ASC_NODE": 354.8035, "ARG_OF_PERICENTER": 72.8506, "MEAN_ANOMALY": 287.3091, "EPHEMERIS_TYPE": 0, "CLASSIFICATION_TYPE": "U", "NORAD_CAT_ID": 48079, "ELEMENT_SET_NO": 999, "REV_AT_EPOCH": 25626, "BSTAR": 8.2286e-05, "MEAN_MOTION_DOT": 5.8e-06, "MEAN_MOTION_DDOT": 0}, "tle": {"line1": "1 48079U 21026A   25360.86473226  .00000580  00000+0  82286-4 0  9995", "line2": "2 48079  97.9858 354.8035 0003520  72.8506 287.3091 14.80691768256263"}}, "geometry": {"type": "Point", "coordinates": [-172.78292774826264, 56.380325017555684]}}, {"type": "Feature", "properties": {"norad_id": 48268, "name": "PLEIADES NEO 3", "group": "resource", "lat": -59.69597256359927, "lon": -120.40806103417239, "alt_km": 632.0443390180844, "timestamp": "2025-12-27T02:10:15.845879+00:00", "meta": {"OBJECT_NAME": "PLEIADES NEO 3", "OBJECT_ID": "2021-034A", "EPOCH": "2025-12-26T20:13:34.453632", "MEAN_MOTION": 14.81674183, "ECCENTRICITY": 0.0001374, "INCLINATION": 97.8941, "RA_OF_ASC_NODE": 73.0812, "ARG_OF_PERICENTER": 88.6899, "MEAN_ANOMALY": 271.4471, "EPHEMERIS_TYPE": 0, "CLASSIFICATION_TYPE": "U", "NORAD_CAT_ID": 48268, "ELEMENT_SET_NO": 999, "REV_AT_EPOCH": 25213, "BSTAR": 6.392e-05, "MEAN_MOTION_DOT": 4.51e-06, "MEAN_MOTION_DDOT": 0}, "tle": {"line1": "1 48268U 21034A   25360.84275988  .00000451  00000+0  63920-4 0  9998", "line2": "2 48268  97.8941  73.0812 0001374  88.6899 271.4471 14.81674183252134"}}, "geometry": {"type": "Point", "coordinates": [-120.40806103417239, -59.69597256359927]}}, {"type": "Feature", "properties": {"norad_id": 49070, "name": "PLEIADES NEO 4", "group": "resource", "lat": 59.61988679808861, "lon": 59.63030663699304, "alt_km": 617.4500408240883, "timestamp": "2025-12-27T02:10:15.845891+00:00", "meta": {"OBJECT_NAME": "PLEIADES NEO 4", "OBJECT_ID": "2021-073E", "EPOCH": "2025-12-26T19:24:56.114784", "MEAN_MOTION": 14.81671003, "ECCENTRICITY": 0.0001337, "INCLINATION": 97.8941, "RA_OF_ASC_NODE": 73.0437, "ARG_OF_PERICENTER": 87.9709, "MEAN_ANOMALY": 272.1657, "EPHEMERIS_TYPE": 0, "CLASSIFICATION_TYPE": "U", "NORAD_CAT_ID": 49070, "ELEMENT_SET_NO": 999, "REV_AT_EPOCH": 23584, "BSTAR": -6.986e-05, "MEAN_MOTION_DOT": -6.02e-06, "MEAN_MOTION_DDOT": 0}, "tle": {"line1": "1 49070U 21073E   25360.80898281 -.00000602  00000+0 -69860-4 0  9995", "line2": "2 49070  97.8941  73.0437 0001337  87.9709 272.1657 14.81671003235841"}}, "geometry": {"type": "Point", "coordinates": [59.63030663699304, 59.61988679808861]}}, {"type": "Feature", "properties": {"norad_id": 49260, "name": "LANDSAT 9", "group": "resource", "lat": -68.71677875475709, "lon": -132.7552470219787, "alt_km": 710.500019982378, "timestamp": "2025-12-27T02:10:15.845901+00:00", "meta": {"OBJECT_NAME": "LANDSAT 9", "OBJECT_ID": "2021-088A", "EPOCH": "2025-12-26T15:08:15.498816", "MEAN_MOTION": 14.57112026, "ECCENTRICITY": 0.0001109, "INCLINATION": 98.2076, "RA_OF_ASC_NODE": 68.5392, "ARG_OF_PERICENTER": 93.7415, "MEAN_ANOMALY": 266.3911, "EPHEMERIS_TYPE": 0, "CLASSIFICATION_TYPE": "U", "NORAD_CAT_ID": 49260, "ELEMENT_SET_NO": 999, "REV_AT_EPOCH": 22587, "BSTAR": 0.00011419, "MEAN_MOTION_DOT": 4.69e-06, "MEAN_MOTION_DDOT": 0}, "tle": {"line1": "1 49260U 21088A   25360.63073494  .00000469  00000+0  11419-3 0  9999", "line2": "2 49260  98.2076  68.5392 0001109  93.7415 266.3911 14.57112026225879"}}, "geometry": {"type": "Point", "coordinates": [-132.7552470219787, -68.71677875475709]}}, {"type": "Feature", "properties": {"norad_id": 51444, "name": "CSG-2", "group": "resource", "lat": 60.867596339082375, "lon": 16.587505468911417, "alt_km": 615.7797571304536, "timestamp": "2025-12-27T02:10:15.845911+00:00", "meta": {"OBJECT_NAME": "CSG-2", "OBJECT_ID": "2022-008A", "EPOCH": "2025-12-26T19:09:33.413760", "MEAN_MOTION": 14.82158639, "ECCENTRICITY": 0.0001462, "INCLINATION": 97.8807, "RA_OF_ASC_NODE": 181.9096, "ARG_OF_PERICENTER": 83.2863, "MEAN_ANOMALY": 276.8516, "EPHEMERIS_TYPE": 0, "CLASSIFICATION_TYPE": "U", "NORAD_CAT_ID": 51444, "ELEMENT_SET_NO": 999, "REV_AT_EPOCH": 21105, "BSTAR": 0.00012287, "MEAN_MOTION_DOT": 9.26e-06, "MEAN_MOTION_DDOT": 0}, "tle": {"line1": "1 51444U 22008A   25360.79830340  .00000926  00000+0  12287-3 0  9999", "line2": "2 51444  97.8807 181.9096 0001462  83.2863 276.8516 14.82158639211057"}}, "geometry": {"type": "Point", "coordinates": [16.587505468911417, 60.867596339082375]}}]}